ONEWEB-0228             
1 48780U 21045P   23230.15031066 -.00000028  00000+0 -10873-3 0  9994
2 48780  87.8980 105.0979 0001701  85.5940 274.5385 13.15546450109503
